[
  {
    "name": "KUIPER-00057",
    "noradId": "64517",
    "line1": "1 64517U 25134T   26188.05948227 -.00012904  00000+0 -16677-2 0  9996",
    "line2": "2 64517  51.9023  62.7186 0000132  46.9552 313.1421 14.79915980 57787"
  },
  {
    "name": "KUIPER-00058",
    "noradId": "64518",
    "line1": "1 64518U 25134U   26189.98950575  .00002093  00000+0  30351-3 0  9991",
    "line2": "2 64518  51.8996  49.1567 0000673 119.6582 240.4447 14.79918697 58148"
  },
  {
    "name": "KUIPER-00059",
    "noradId": "64519",
    "line1": "1 64519U 25134V   26189.99490557  .00002016  00000+0  29348-3 0  9991",
    "line2": "2 64519  51.8997  44.1728 0000831 109.4342 250.6710 14.79925930 58213"
  },
  {
    "name": "KUIPER-00060",
    "noradId": "64520",
    "line1": "1 64520U 25134W   26190.02868135  .00002207  00000+0  31849-3 0  9991",
    "line2": "2 64520  51.9018  44.0867 0000644 101.7135 258.3899 14.79927327 58204"
  },
  {
    "name": "KUIPER-00061",
    "noradId": "64521",
    "line1": "1 64521U 25134X   26189.91919446 -.00024586  00000+0 -32031-2 0  9999",
    "line2": "2 64521  51.9006  52.0229 0001137 126.9333 233.1733 14.79994389 58086"
  },
  {
    "name": "KUIPER-00062",
    "noradId": "64522",
    "line1": "1 64522U 25134Y   26189.98409111  .00010241  00000+0  13693-2 0  9994",
    "line2": "2 64522  51.8963  54.2142 0000739 128.5827 231.5202 14.79965082 58079"
  },
  {
    "name": "KUIPER-00063",
    "noradId": "64523",
    "line1": "1 64523U 25134Z   26189.84097830  .00002616  00000+0  37214-3 0  9994",
    "line2": "2 64523  51.9024  62.3988 0000772 106.5424 253.5623 14.79925230 57940"
  },
  {
    "name": "KUIPER-00064",
    "noradId": "64524",
    "line1": "1 64524U 25134AA  26190.04625129  .00002121  00000+0  30715-3 0  9997",
    "line2": "2 64524  51.9019  58.9156 0000723 111.3501 248.7539 14.79930421 58018"
  },
  {
    "name": "KUIPER-00065",
    "noradId": "64525",
    "line1": "1 64525U 25134AB  26189.90582169  .00002176  00000+0  31444-3 0  9997",
    "line2": "2 64525  51.9026  64.7063 0000768 105.1792 254.9255 14.79926571 57903"
  },
  {
    "name": "KUIPER-00066",
    "noradId": "64526",
    "line1": "1 64526U 25134AC  26190.74979692  .00002293  00000+0  32974-3 0  9992",
    "line2": "2 64526  51.9028 358.2515 0000597 107.9356 252.1672 14.79932029 58926"
  },
  {
    "name": "KUIPER-00069",
    "noradId": "64816",
    "line1": "1 64816U 25151A   26190.13279233  .00002778  00000+0  39337-3 0  9998",
    "line2": "2 64816  51.9018 103.6217 0000718  99.2165 260.8879 14.79927270 54747"
  },
  {
    "name": "KUIPER-00070",
    "noradId": "64817",
    "line1": "1 64817U 25151B   26190.20711171  .00002286  00000+0  32878-3 0  9996",
    "line2": "2 64817  51.8998 128.2047 0000902  84.1197 275.9869 14.79925553 54413"
  },
  {
    "name": "KUIPER-00071",
    "noradId": "64818",
    "line1": "1 64818U 25151C   26189.06174226  .00001968  00000+0  28720-3 0  9990",
    "line2": "2 64818  51.9003 130.8071 0000787  90.8352 269.2700 14.79922373 53096"
  },
  {
    "name": "KUIPER-00072",
    "noradId": "64819",
    "line1": "1 64819U 25151D   26189.92747976  .00002080  00000+0  30190-3 0  9994",
    "line2": "2 64819  51.8958 106.9263 0000744  82.5315 277.5732 14.79910672 53504"
  },
  {
    "name": "KUIPER-00073",
    "noradId": "64820",
    "line1": "1 64820U 25151E   26190.24355535  .00002289  00000+0  32921-3 0  9994",
    "line2": "2 64820  51.8993 125.5657 0000893  86.9578 273.1486 14.79933605 54457"
  },
  {
    "name": "KUIPER-00074",
    "noradId": "64821",
    "line1": "1 64821U 25151F   26190.83335647  .00157903  21416-4  33213-3 0  9990",
    "line2": "2 64821  51.8771  26.1899 0002456 242.2152 302.2748 15.98566759  5723"
  },
  {
    "name": "KUIPER-00075",
    "noradId": "64822",
    "line1": "1 64822U 25151G   26190.69836600  .00033058  00000+0  68758-3 0  9997",
    "line2": "2 64822  51.8673 346.3096 0003528 346.9728  13.1170 15.45326903 55249"
  },
  {
    "name": "KUIPER-00076",
    "noradId": "64823",
    "line1": "1 64823U 25151H   26190.18683056  .00002157  00000+0  31197-3 0  9990",
    "line2": "2 64823  51.8983 115.8373 0000747  94.7594 265.3453 14.79923338 53402"
  },
  {
    "name": "KUIPER-00077",
    "noradId": "64824",
    "line1": "1 64824U 25151J   26190.18143856  .00001112  00000+0  17486-3 0  9995",
    "line2": "2 64824  51.9004 120.8781 0000456 132.7123 227.3878 14.79924611 53331"
  },
  {
    "name": "KUIPER-00078",
    "noradId": "64825",
    "line1": "1 64825U 25151K   26190.21787820  .00002181  00000+0  31503-3 0  9998",
    "line2": "2 64825  51.8995 118.1947 0000807  97.2068 262.8986 14.79938037 53372"
  },
  {
    "name": "KUIPER-00079",
    "noradId": "64826",
    "line1": "1 64826U 25151L   26188.22036023 -.00000847  00000+0 -82088-4 0  9993",
    "line2": "2 64826  51.8964 131.9874 0001347  85.1153 274.9963 14.79921572 54200"
  },
  {
    "name": "KUIPER-00080",
    "noradId": "64827",
    "line1": "1 64827U 25151M   26188.25412865 -.00001397  00000+0 -15427-3 0  9992",
    "line2": "2 64827  51.8984 131.8507 0000787  99.2579 260.8473 14.79918968 53013"
  },
  {
    "name": "KUIPER-00082",
    "noradId": "64828",
    "line1": "1 64828U 25151N   26190.19222405  .00001204  00000+0  18703-3 0  9993",
    "line2": "2 64828  51.9008 110.8285 0000932 118.0966 242.0090 14.79923183 53476"
  },
  {
    "name": "KUIPER-00083",
    "noradId": "64829",
    "line1": "1 64829U 25151P   26190.18413410  .00002353  00000+0  33759-3 0  9995",
    "line2": "2 64829  51.8992 118.3523 0000792  99.3205 260.7846 14.79930166 54552"
  },
  {
    "name": "KUIPER-00084",
    "noradId": "64830",
    "line1": "1 64830U 25151Q   26190.24087523 -.00000695  00000+0 -62212-4 0  9992",
    "line2": "2 64830  51.8999 128.0856 0000780  81.3374 278.7676 14.79921346 53237"
  },
  {
    "name": "KUIPER-00085",
    "noradId": "64831",
    "line1": "1 64831U 25151R   26190.15846527  .00001902  00000+0  27849-3 0  9996",
    "line2": "2 64831  51.9012 111.0276 0000793 113.3591 246.7455 14.79923320 53463"
  },
  {
    "name": "KUIPER-00086",
    "noradId": "64832",
    "line1": "1 64832U 25151S   26190.21520457  .00001525  00000+0  22901-3 0  9990",
    "line2": "2 64832  51.9003 120.7240 0000770  96.2380 263.8670 14.79928951 53332"
  },
  {
    "name": "KUIPER-00087",
    "noradId": "64833",
    "line1": "1 64833U 25151T   26190.16653366  .00002538  00000+0  36179-3 0  9998",
    "line2": "2 64833  51.8981 103.4039 0000830 107.6390 252.4664 14.79939454 53568"
  },
  {
    "name": "KUIPER-00089",
    "noradId": "64834",
    "line1": "1 64834U 25151U   26190.16115611  .00002381  00000+0  34129-3 0  9994",
    "line2": "2 64834  51.8980 108.4479 0000699 104.4396 255.6644 14.79928223 53504"
  },
  {
    "name": "KUIPER-00090",
    "noradId": "64835",
    "line1": "1 64835U 25151V   26189.96665624  .00002029  00000+0  29512-3 0  9994",
    "line2": "2 64835  51.8972 101.8159 0000640 108.7119 251.3913 14.79925715 53576"
  },
  {
    "name": "KUIPER-00091",
    "noradId": "64836",
    "line1": "1 64836U 25151W   26189.96125912  .00000395  00000+0  80825-4 0  9995",
    "line2": "2 64836  51.9006 106.8474 0000764  94.9785 265.1265 14.79922042 53509"
  },
  {
    "name": "KUIPER-00092",
    "noradId": "64837",
    "line1": "1 64837U 25151X   26190.22328670  .00002697  00000+0  38268-3 0  9993",
    "line2": "2 64837  51.8981 113.1817 0000850 103.1933 256.9124 14.79932647 54658"
  },
  {
    "name": "KUIPER-00093",
    "noradId": "64838",
    "line1": "1 64838U 25151Y   26190.22059181  .00001179  00000+0  18371-3 0  9999",
    "line2": "2 64838  51.8986 115.6671 0000794  85.0330 275.0723 14.79928522 53401"
  },
  {
    "name": "KUIPER-00094",
    "noradId": "64839",
    "line1": "1 64839U 25151Z   26190.06650445  .00002314  00000+0  33281-3 0  9991",
    "line2": "2 64839  51.9021  71.4376 0000964  94.5968 265.5104 14.79885845 54010"
  },
  {
    "name": "KUIPER-00081",
    "noradId": "65132",
    "line1": "1 65132U 25171A   26190.68086878  .00002413  00000+0  34540-3 0  9990",
    "line2": "2 65132  51.9012 328.6293 0000521 107.3367 252.7652 14.79933598 51109"
  },
  {
    "name": "KUIPER-00088",
    "noradId": "65133",
    "line1": "1 65133U 25171B   26189.71657932  .00002422  00000+0  34665-3 0  9996",
    "line2": "2 65133  51.9001 350.3952 0000731 105.8143 254.2900 14.79922684 50713"
  },
  {
    "name": "KUIPER-00095",
    "noradId": "65134",
    "line1": "1 65134U 25171C   26190.68357096  .00002456  00000+0  35108-3 0  9993",
    "line2": "2 65134  51.8985 326.1675 0000517 107.9236 252.1783 14.79933781 51138"
  },
  {
    "name": "KUIPER-00096",
    "noradId": "65135",
    "line1": "1 65135U 25171D   26190.70384522  .00002307  00000+0  33148-3 0  9998",
    "line2": "2 65135  51.9005 338.5264 0000492 111.7505 248.3510 14.79935783 50967"
  },
  {
    "name": "KUIPER-00097",
    "noradId": "65136",
    "line1": "1 65136U 25171E   26190.70117185  .00002303  00000+0  33100-3 0  9992",
    "line2": "2 65136  51.9025 341.1933 0000682 110.9073 249.1962 14.79931309 50910"
  },
  {
    "name": "KUIPER-00098",
    "noradId": "65137",
    "line1": "1 65137U 25171F   26189.68551244  .00002476  00000+0  35376-3 0  9994",
    "line2": "2 65137  51.9010 348.0505 0000493  83.2517 276.8501 14.79927485 50085"
  },
  {
    "name": "KUIPER-00099",
    "noradId": "65138",
    "line1": "1 65138U 25171G   26190.67547944  .00002475  00000+0  35350-3 0  9999",
    "line2": "2 65138  51.9026 333.6766 0000583 105.6166 254.4861 14.79934393 51023"
  },
  {
    "name": "KUIPER-00100",
    "noradId": "65139",
    "line1": "1 65139U 25171H   26190.77945228  .00002395  00000+0  34303-3 0  9996",
    "line2": "2 65139  51.9024 330.6876 0000490  96.3088 263.7930 14.79934472 51070"
  },
  {
    "name": "KUIPER-00102",
    "noradId": "65140",
    "line1": "1 65140U 25171J   26189.69629403  .00002420  00000+0  34641-3 0  9995",
    "line2": "2 65140  51.8990 337.9663 0000575  84.7621 275.3407 14.79926544 50871"
  }
]